{
    "links": {
        "self": "http://www.neowsapp.com/rest/v1/neo/3789630?api_key=iIulBulltgU6a56xZRHN4H3l9WmuAYTsLGpBGhQ2"
    },
    "id": "3789630",
    "neo_reference_id": "3789630",
    "name": "(2017 WS13)",
    "designation": "2017 WS13",
    "nasa_jpl_url": "http://ssd.jpl.nasa.gov/sbdb.cgi?sstr=3789630",
    "absolute_magnitude_h": 24.6,
    "estimated_diameter": {
        "kilometers": {
            "estimated_diameter_min": 0.0319561887,
            "estimated_diameter_max": 0.0714562102
        },
        "meters": {
            "estimated_diameter_min": 31.9561886721,
            "estimated_diameter_max": 71.4562101727
        },
        "miles": {
            "estimated_diameter_min": 0.0198566489,
            "estimated_diameter_max": 0.0444008168
        },
        "feet": {
            "estimated_diameter_min": 104.8431420431,
            "estimated_diameter_max": 234.436392583
        }
    },
    "is_potentially_hazardous_asteroid": false,
    "close_approach_data": [
        {
            "close_approach_date": "2017-12-05",
            "close_approach_date_full": "2017-Dec-05 13:36",
            "epoch_date_close_approach": 1512480960000,
            "relative_velocity": {
                "kilometers_per_second": "11.3014976824",
                "kilometers_per_hour": "40685.3916565612",
                "miles_per_hour": "25280.3201657116"
            },
            "miss_distance": {
                "astronomical": "0.0242809278",
                "lunar": "9.4452809142",
                "kilometers": "3632375.080503786",
                "miles": "2257053.2140768068"
            },
            "orbiting_body": "Earth"
        }
    ],
    "orbital_data": {
        "orbit_id": "3",
        "orbit_determination_date": "2017-11-29 06:18:25",
        "first_observation_date": "2017-11-20",
        "last_observation_date": "2017-11-28",
        "data_arc_in_days": 8,
        "observations_used": 48,
        "orbit_uncertainty": "8",
        "minimum_orbit_intersection": ".0135747",
        "jupiter_tisserand_invariant": "3.440",
        "epoch_osculation": "2458080.5",
        "eccentricity": ".5910546494303327",
        "semi_major_axis": "2.163359453938408",
        "inclination": "5.68498300874463",
        "ascending_node_longitude": "77.48236586448365",
        "orbital_period": "1162.22832515997",
        "perihelion_distance": ".8846957902990464",
        "perihelion_argument": "35.13812339132296",
        "aphelion_distance": "3.44202311757777",
        "perihelion_time": "2458121.765006075855",
        "mean_anomaly": "347.2181723111394",
        "mean_motion": ".3097498075091651",
        "equinox": "J2000",
        "orbit_class": {
            "orbit_class_type": "APO",
            "orbit_class_description": "Near-Earth asteroid orbits which cross the Earth’s orbit similar to that of 1862 Apollo",
            "orbit_class_range": "a (semi-major axis) > 1.0 AU; q (perihelion) < 1.017 AU"
        }
    },
    "is_sentry_object": false
}